FENGYUN 1C DEB          
1 30497U 99025AHK 17345.94045191  .00010705  00000-0  10479-2 0  9997
2 30497  99.1323 343.8198 0049652  78.4345 312.3247 14.91597187574151
